              M50 Cartesian                         M50 Keplerian  
    -----------------------------------       --------------------------------
     X    =       -1571348.66                 A    =         6787342.80  meter
     Y    =        6389335.76  meter          E    =           .0014882
     Z    =        1639609.02                 I    =           51.32497
     XDOT =      -5137.916919                 Wp   =          111.27469
     YDOT =        206.405434  meter/sec      RA   =          295.32220  deg
     ZDOT =      -5691.859800                 TA   =           50.68313
                                              MA   =           50.55129
                                              Ha   =            221.053  n.mi
                                              Hp   =            213.687
 
              M50 Cartesian                         J2K Cartesian  
    -----------------------------------       --------------------------------
     X    =       -5155343.36                 X    =        -1650643.59
     Y    =       20962387.65  feet           Y    =         6371320.56  meter
     Z    =        5379294.69                 Z    =         1631783.03
     XDOT =     -16856.682805                 XDOT =       -5112.194332
     YDOT =        677.183183  feet/sec       YDOT =         149.093543  meter/sec
     ZDOT =     -18674.080709                 ZDOT =       -5716.756220
 
              TDR Cartesian                         TDR Cartesian  
    -----------------------------------       --------------------------------
     X    =        5144827.44                 X    =         1568143.40
     Y    =       20973972.38  feet           Y    =         6392866.78  meter
     Z    =        5344090.73                 Z    =         1628878.86
     XDOT =     -12976.475583                 XDOT =       -3955.229758
     YDOT =       7999.421457  feet/sec       YDOT =        2438.223660  meter/sec
     ZDOT =     -18782.229043                 ZDOT =       -5724.823412
  
  
    The mean element set is posted at the UTC for which position is
    just north of the next ascending node relative to the above
    vector time
 
 
    TWO LINE MEAN ELEMENT SET
  
    ISS
    1 25544U 98067A   16121.50677514  .00016717  00000-0  10270-3 0  9014
    2 25544  51.6399 295.8814 0001595  60.7774 299.3538 15.54425857 37569
  
  
    Satellite: ISS
    Catalog Number: 25544
    Epoch time:      16121.50677514   =   yrday.fracday
    Element set:     901
    Inclination:       51.6399  deg
    RA of node:       295.8814  deg
    Eccentricity:     .0001595     
    Arg of perigee:    60.7774  deg
    Mean anomaly:     299.3538  deg
    Mean motion:   15.54425857  rev/day
    Decay rate:    1.67170E-04  rev/day^2
    Epoch rev:            3756
    Checksum:              347
 
 
    Coasting Arc #3 (Orbit 3771)
    ---------------------------------------
 
    Vector Time (GMT): 2016/122/11:18:49.007
    Vector Time (MET): N/A
    Weight (LBS)     : 945238.6
 
              M50 Cartesian                         M50 Keplerian  
    -----------------------------------       --------------------------------
     X    =        2442025.73                 A    =         6788574.53  meter
     Y    =       -6326441.63  meter          E    =           .0013810
     Z    =         115166.96                 I    =           51.31526
     XDOT =       4433.371861                 Wp   =           49.91274
     YDOT =       1828.771612  meter/sec      RA   =          290.32759  deg
     ZDOT =       5985.360405                 TA   =          311.33371
                                              MA   =          311.45246
                                              Ha   =            221.172  n.mi
                                              Hp   =            213.661
 
              M50 Cartesian                         J2K Cartesian  
    -----------------------------------       --------------------------------
     X    =        8011895.43                 X    =         2512028.64
     Y    =      -20756042.08  feet           Y    =        -6298741.86  meter
     Z    =         377844.36                 Z    =          127200.03
     XDOT =      14545.183270                 XDOT =        4383.518048
     YDOT =       5999.906865  feet/sec       YDOT =        1878.069963  meter/sec
     ZDOT =      19637.009204                 ZDOT =        6006.775640
 
              TDR Cartesian                         TDR Cartesian  
    -----------------------------------       --------------------------------
     X    =       -2931887.17                 X    =         -893639.21
     Y    =      -22053674.12  feet           Y    =        -6721959.87  meter
     Z    =         431292.16                 Z    =          131457.85
     XDOT =      13921.900948                 XDOT =        4243.395409
     YDOT =      -1438.676289  feet/sec       YDOT =        -438.508533  meter/sec
     ZDOT =      19729.655591                 ZDOT =        6013.599024
  
  
    The mean element set is posted at the UTC for which position is
    just north of the next ascending node relative to the above
    vector time
 
 
    TWO LINE MEAN ELEMENT SET
  
    ISS
    1 25544U 98067A   16122.53544190  .00016717  00000-0  10270-3 0  9022
    2 25544  51.6393 290.7510 0001636  76.1971 283.9364 15.54386374 37720
  
  
    Satellite: ISS
    Catalog Number: 25544
    Epoch time:      16122.53544190   =   yrday.fracday
    Element set:     902
    Inclination:       51.6393  deg
    RA of node:       290.7510  deg
    Eccentricity:     .0001636     
    Arg of perigee:    76.1971  deg
    Mean anomaly:     283.9364  deg
    Mean motion:   15.54386374  rev/day
    Decay rate:    1.67170E-04  rev/day^2
    Epoch rev:            3772
    Checksum:              316
 
 
    Coasting Arc #4 (Orbit 3786)
    ---------------------------------------
 
    Vector Time (GMT): 2016/123/11:18:49.007
    Vector Time (MET): N/A
    Weight (LBS)     : 945238.6
 
              M50 Cartesian                         M50 Keplerian  
    -----------------------------------       --------------------------------
     X    =       -3143299.46                 A    =         6786890.42  meter
     Y    =        5704947.98  meter          E    =           .0007916
     Z    =       -1900976.73                 I    =           51.30010
     XDOT =      -3589.145674                 Wp   =          128.06674
     YDOT =      -3831.710699  meter/sec      RA   =          285.33209  deg
     ZDOT =      -5585.185512                 TA   =           72.97092
                                              MA   =           72.88420
                                              Ha   =            221.168  n.mi
                                              Hp   =            213.508
 
              M50 Cartesian                         J2K Cartesian  
    -----------------------------------       --------------------------------
     X    =      -10312662.25                 X    =        -3197625.77
     Y    =       18717020.92  feet           Y    =         5669493.68  meter
     Z    =       -6236800.30                 Z    =        -1916378.44
     XDOT =     -11775.412316                 XDOT =       -3518.901072
     YDOT =     -12571.229329  feet/sec       YDOT =       -3871.454385  meter/sec
     ZDOT =     -18324.099448                 ZDOT =       -5602.450084
 
              TDR Cartesian                         TDR Cartesian  
    -----------------------------------       --------------------------------
     X    =         335031.69                 X    =          102117.66
     Y    =       21347446.57  feet           Y    =         6506701.72  meter
     Z    =       -6304746.75                 Z    =        -1921686.81
     XDOT =     -14794.826901                 XDOT =       -4509.463239
     YDOT =      -5181.723633  feet/sec       YDOT =       -1579.389363  meter/sec
     ZDOT =     -18398.350571                 ZDOT =       -5607.817254
  
  
    The mean element set is posted at the UTC for which position is
    just north of the next ascending node relative to the above
    vector time
 
 
    TWO LINE MEAN ELEMENT SET
  
    ISS
    1 25544U 98067A   16123.49980749  .00016717  00000-0  10270-3 0  9033
    2 25544  51.6396 285.9415 0001861  74.3744 285.7614 15.54427235 37877
  
  
    Satellite: ISS
    Catalog Number: 25544
    Epoch time:      16123.49980749   =   yrday.fracday
    Element set:     903
    Inclination:       51.6396  deg
    RA of node:       285.9415  deg
    Eccentricity:     .0001861     
    Arg of perigee:    74.3744  deg
    Mean anomaly:     285.7614  deg
    Mean motion:   15.54427235  rev/day
    Decay rate:    1.67170E-04  rev/day^2
    Epoch rev:            3787
    Checksum:              344
 
 
    Coasting Arc #5 (Orbit 3796)
    ---------------------------------------
 
    Vector Time (GMT): 2016/124/02:16:00.000
    Vector Time (MET): N/A
    Weight (LBS)     : 945238.6
 
              M50 Cartesian                         M50 Keplerian  
    -----------------------------------       --------------------------------
     X    =        4149651.46                 A    =         6776500.79  meter
     Y    =         865029.97  meter          E    =           .0004129
     Z    =        5283517.45                 I    =           51.26142
     XDOT =      -1599.043589                 Wp   =           81.48932
     YDOT =       7504.091398  meter/sec      RA   =          282.19622  deg
     ZDOT =         27.876616                 TA   =            8.24719
                                              MA   =            8.24040
                                              Ha   =            221.021  n.mi
                                              Hp   =            213.592
 
